0 COSMOS 2251 DEB
1 35976U 93036AVS 13275.08710303  .00001299  00000-0  49689-3 0  1702
2 35976 074.0451 187.3358 0067748 271.8989 087.4419 14.30436374226204
0 COSMOS 2251 DEB
1 35976U 93036AVS 13277.39501021  .00001324  00000-0  50652-3 0  1715
2 35976 074.0467 183.1421 0066630 265.9741 093.4009 14.30443287226534
0 COSMOS 2251 DEB
1 35976U 93036AVS 13280.05258399  .00001322  00000-0  50559-3 0  1724
2 35976 074.0469 178.3117 0066473 260.3852 098.9742 14.30450385226914
0 COSMOS 2251 DEB
1 35976U 93036AVS 13282.36047216  .00001324  00000-0  50611-3 0  1736
2 35976 074.0455 174.1145 0067049 256.4496 102.9130 14.30456571227241
0 COSMOS 2251 DEB
1 35976U 93036AVS 13287.32589854  .00001317  00000-0  50329-3 0  1756
2 35976 074.0468 165.0884 0067240 246.5740 112.8308 14.30469731227956
